COSMOS 2426 (717)       
1 29671U 06062B   19106.19107728  .00000019  00000-0  10000-3 0  9995
2 29671  65.1512 282.3898 0017406 158.3925  24.0876  2.13103145 95773
COSMOS 2433 (720)       
1 32275U 07052A   19106.59704286 -.00000061  00000-0  10000-3 0  9993
2 32275  65.8279  43.1977 0004065 288.8512 181.4885  2.13104301 89296
COSMOS 2432 (719)       
1 32276U 07052B   19106.69717471 -.00000062  00000-0  10000-3 0  9996
2 32276  65.8398  43.2754 0013088 329.5502 168.8355  2.13103945 89294
COSMOS 2434 (721)       
1 32393U 07065A   19106.28980473  .00000016  00000-0  00000+0 0  9992
2 32393  64.7517 281.1136 0005512  91.6878  30.4299  2.13102995 87998
COSMOS 2436 (723)       
1 32395U 07065C   19106.32870039  .00000016  00000-0  10000-3 0  9990
2 32395  64.7624 281.1639 0016828   7.1055 196.8311  2.13104406 87922
COSMOS 2456 (730)       
1 36111U 09070A   19106.50697571  .00000060  00000-0  00000-0 0  9991
2 36111  64.1954 160.7351 0005370 307.6400 154.0337  2.13102911 72665
COSMOS 2457 (733)       
1 36112U 09070B   19106.36135492  .00000059  00000-0  00000+0 0  9992
2 36112  64.1784 160.6431 0005195 180.8126 294.5278  2.13101615 72660
COSMOS 2459 (731)       
1 36400U 10007A   19106.53944955 -.00000062  00000-0  10000-3 0  9995
2 36400  65.7335  42.2238 0028185 348.7761 293.8339  2.13102295 71016
COSMOS 2461 (735)       
1 36401U 10007B   19106.52896469 -.00000062  00000-0  10000-3 0  9991
2 36401  65.7255  42.1943 0006747  45.6826 139.4173  2.13102291 71012
COSMOS 2460 (732)       
1 36402U 10007C   19106.52600485 -.00000062  00000-0  10000-3 0  9993
2 36402  65.7175  42.1616 0002325 326.5355 256.3267  2.13101599 71010
COSMOS 2464 (736)       
1 37139U 10041C   19106.69924994  .00000009  00000-0  00000-0 0  9997
2 37139  64.3549 280.7527 0026283  16.1006 286.8650  2.13100705 67087
COSMOS 2474 (742)       
1 37829U 11055A   19106.59609957  .00000060  00000-0  00000-0 0  9994
2 37829  64.5185 161.5781 0009731 249.3768 137.3941  2.13101875 58669
COSMOS 2476 (744)       
1 37867U 11064A   19106.45453258  .00000059  00000-0  00000-0 0  9990
2 37867  64.4975 161.6371 0019794 241.9162  82.3782  2.13101998 58005
COSMOS 2477 (745)       
1 37868U 11064B   19106.50604839  .00000059  00000-0  00000-0 0  9990
2 37868  64.5066 161.6848 0017428 243.7020 298.8379  2.13101806 57960
COSMOS 2475 (743)       
1 37869U 11064C   19106.32393581  .00000058  00000-0  00000-0 0  9999
2 37869  64.5134 161.6912 0022032 265.6163  94.2239  2.13101963 57975
COSMOS 2485 (747)       
1 39155U 13019A   19106.44216096  .00000059  00000-0  00000+0 0  9999
2 39155  64.6663 161.8151 0020241 237.6779 121.8756  2.13101933 46473
COSMOS 2492 (754)       
1 39620U 14012A   19106.63521686 -.00000063  00000-0  10000-3 0  9996
2 39620  65.6071  41.9991 0016349 326.2691 216.4520  2.13103407 39432
COSMOS 2500 (755)       
1 40001U 14032A   19106.47180634 -.00000063  00000-0  00000-0 0  9995
2 40001  65.5479  41.9526 0005562 229.0825  49.8318  2.13102830 37649
COSMOS 2501 (702K)      
1 40315U 14075A   19106.19784301  .00000016  00000-0  00000-0 0  9997
2 40315  64.0741 281.8729 0014626 203.5767  23.7069  2.13098632 34045
COSMOS 2514 (751)       
1 41330U 16008A   19106.58174375 -.00000063  00000-0  00000-0 0  9993
2 41330  65.3495  41.9265 0009295 230.7975 314.0176  2.13103255 24819
COSMOS 2516 (753)       
1 41554U 16032A   19106.71440363  .00000009  00000-0  00000-0 0  9995
2 41554  64.2966 281.8050 0010359 212.1046 325.1172  2.13101750 22423
COSMOS 2522 (752)       
1 42939U 17055A   19106.43122470  .00000014  00000-0  00000-0 0  9990
2 42939  64.5287 281.8705 0004940 246.6347 299.8343  2.13101998 12174
COSMOS 2527 (756)       
1 43508U 18053A   19106.61785623  .00000061  00000-0  00000-0 0  9999
2 43508  64.8320 161.5625 0008152 239.7300 120.9629  2.13102656  6473
COSMOS 2529 (757)       
1 43687U 18086A   19106.63943634  .00000012  00000-0  00000-0 0  9999
2 43687  64.7391 281.8669 0007958 279.6304  22.2836  2.13102072  3486
